[Satellite]
VERSION=1.1
NAME=GPS BIIA-10 (PRN 32)
NICKNAME=GPS BIIA-10 (PRN 32)
TLE1=1 20959U 90103A   15055.14885934  .00000029  00000-0  00000+0 0  9996
TLE2=2 20959  54.2683 198.8235 0113109   0.1599 359.8046  2.00575460177571
